NAVSTAR 77 (USA 289)    
1 43873U 18109A   23335.64833510  .00000041  00000+0  00000+0 0  9993
2 43873  55.2256 128.8745 0027520 190.1388 164.1015  2.00571803 36444
